COSMOS 2456 (730)       
1 36111U 09070A   26095.32984413 -.00000002  00000+0  00000+0 0  9995
2 36111  64.9700  73.4555 0006490 311.3492 210.9797  2.13103601126877
COSMOS 2457 (733)       
1 36112U 09070B   26094.01031916 -.00000008  00000+0  00000+0 0  9998
2 36112  64.9547  73.3459 0001490 193.6954 164.4243  2.13100936126842
COSMOS 2460 (732)       
1 36402U 10007C   26094.24975299 -.00000046  00000+0  00000+0 0  9990
2 36402  65.4623 316.9695 0002181  49.5361 133.5187  2.13106066125159
GPS BIIF-1  (PRN 25)    
1 36585U 10022A   26095.16725920  .00000006  00000+0  00000+0 0  9990
2 36585  54.2820 211.5026 0126957  66.0332 295.6559  2.00558893116130
BEIDOU-2 IGSO-1 (C06)   
1 36828U 10036A   26086.63883915 -.00000150  00000+0  00000+0 0  9997
2 36828  54.2909 163.6978 0057461 222.7538 133.1758  1.00295665 57273
BEIDOU-2 G4 (C04)       
1 37210U 10057A   26095.64463385 -.00000109  00000+0  00000+0 0  9996
2 37210   3.4673  69.3549 0007152 215.6098 301.0516  1.00271640 56569
BEIDOU-2 IGSO-2 (C07)   
1 37256U 10068A   26086.44836399 -.00000175  00000+0  00000+0 0  9998
2 37256  47.6922 272.8379 0048070 212.2935 326.6285  1.00251076 55976
BEIDOU-2 IGSO-3 (C08)   
1 37384U 11013A   26095.26752999 -.00000186  00000+0  00000+0 0  9996
2 37384  62.3143  40.8400 0034292 189.3814 167.2909  1.00285678 54927
GSAT-8 (GAGAN/PRN 127)  
1 37605U 11022A   26095.54193836  .00000087  00000+0  00000+0 0  9991
2 37605   1.9433  82.6941 0005609 224.9669 136.3319  1.00272226 52499
BEIDOU-2 IGSO-4 (C09)   
1 37763U 11038A   26087.66258249 -.00000109  00000+0  00000+0 0  9993
2 37763  54.5871 166.4040 0156581 231.4212 120.2889  1.00260433 53838
GSAT0101 (GALILEO-PFM)  
1 37846U 11060A   26095.11194268 -.00000093  00000+0  00000+0 0  9991
2 37846  57.0168 343.7451 0004096  18.3596 341.7021  1.70475898 89874
GSAT0102 (GALILEO-FM2)  
1 37847U 11060B   26094.16007975 -.00000095  00000+0  00000+0 0  9996
2 37847  57.0179 343.7712 0004811   9.1881 172.2383  1.70475892 89868
COSMOS 2476 (744)       
1 37867U 11064A   26095.24142771  .00000001  00000+0  00000+0 0  9992
2 37867  65.2297  75.3322 0024787 242.3666 120.4755  2.13103713112215
COSMOS 2477 (745)       
1 37868U 11064B   26095.47511352  .00000003  00000+0  00000+0 0  9995
2 37868  65.2365  75.4031 0021870 243.9578 118.7207  2.13102893112219
COSMOS 2475 (743)       
1 37869U 11064C   26092.47987737 -.00000001  00000+0  00000+0 0  9996
2 37869  65.2414  75.5251 0027830 255.4078 284.8639  2.13101572112155
BEIDOU-2 IGSO-5 (C10)   
1 37948U 11073A   26093.97039089 -.00000174  00000+0  00000+0 0  9999
2 37948  47.8149 272.4589 0109539 220.8427 142.8662  1.00265759 52398
LUCH 5A (SDCM/PRN 140)  
1 37951U 11074B   26095.39926213 -.00000046  00000+0  00000+0 0  9994
2 37951   8.5697  74.8636 0003151 286.3176 143.1768  1.00271407 52323
